[{"OBJECT_NAME":"ONEWEB-0017","OBJECT_ID":"2020-008B","EPOCH":"2026-03-09T21:18:16.838496","MEAN_MOTION":13.10370318,"ECCENTRICITY":0.00020566,"INCLINATION":87.8769,"RA_OF_ASC_NODE":56.0409,"ARG_OF_PERICENTER":90.0136,"MEAN_ANOMALY":270.1227,"EPHEMERIS_TYPE":0,"CLASSIFICATION_TYPE":"U","NORAD_CAT_ID":45132,"ELEMENT_SET_NO":999,"REV_AT_EPOCH":29494,"BSTAR":0.00062410881,"MEAN_MOTION_DOT":2.31e-6,"MEAN_MOTION_DDOT":0},{"OBJECT_NAME":"UNKNOWN","OBJECT_ID":"","EPOCH":"2026-03-08T14:43:42.855744","MEAN_MOTION":12.81802987,"ECCENTRICITY":0.02531165,"INCLINATION":102.8349,"RA_OF_ASC_NODE":188.1931,"ARG_OF_PERICENTER":226.8521,"MEAN_ANOMALY":131.1151,"EPHEMERIS_TYPE":0,"CLASSIFICATION_TYPE":"U","NORAD_CAT_ID":270038,"ELEMENT_SET_NO":999,"REV_AT_EPOCH":29139,"BSTAR":0.05035361,"MEAN_MOTION_DOT":0.00013424,"MEAN_MOTION_DDOT":0}]
